#aV2014  8 29  0  0  0.00000000     288 DD+AD WGS84 FIT  NGA
## 1807 432000.00000000   300.00000000 56898 0.0000000000000
+   31     1  2  4  5  6  7  8  9 10 11 12 13 14 15 16 17 18
+         19 20 21 22 23 24 25 26 27 28 29 30 31 32  0  0  0
+          0  0  0  0  0  0  0  0  0  0  0  0  0  0  0  0  0
+          0  0  0  0  0  0  0  0  0  0  0  0  0  0  0  0  0
+          0  0  0  0  0  0  0  0  0  0  0  0  0  0  0  0  0
++         2  2  2  2  2  2  2  2  2  2  2  2  2  2  2  2  2
++         2  2  2  2  2  2  2  2  2  2  2  2  2  2  0  0  0
++         0  0  0  0  0  0  0  0  0  0  0  0  0  0  0  0  0
++         0  0  0  0  0  0  0  0  0  0  0  0  0  0  0  0  0
++         0  0  0  0  0  0  0  0  0  0  0  0  0  0  0  0  0
%c cc cc ccc ccc cccc cccc cccc cccc ccccc ccccc ccccc ccccc
%c cc cc ccc ccc cccc cccc cccc cccc ccccc ccccc ccccc ccccc
%f  0.0000000  0.000000000  0.00000000000  0.000000000000000
%f  0.0000000  0.000000000  0.00000000000  0.000000000000000
%i    0    0    0    0      0      0      0      0         0
%i    0    0    0    0      0      0      0      0         0
/*      NGA, ST. LOUIS,MO.                                  
/*   EPHEMERIS COMPUTED FROM  1 DAYS OF DATA                
/*   EPOCHA SMOOTHER                                       
/* CCCCCCCCCCCCCCCCCCCCCCCCCCCCCCCCCCCCCCCCCCCCCCCCCCCCCCCCC
*  2014  8 29 22  0  0.00000000
P  1  19582.748898  13427.528511 -12101.846443     20.422995                    
V  1 -15333.927308  -1442.938478 -26354.813332      0.005914                    
P  2   4488.467512 -15183.777113  21612.825953    515.427410                    
V  2  26182.464095   5863.237724  -1821.653778      0.021953                    
P  4  25788.192046   6781.490618  -1295.492832     -0.294435                    
V  4  -1957.776328   2929.707929 -31056.514528     -0.002984                    
P  5   -468.231543 -24720.561564   9427.835972   -344.719255                    
V  5   6475.691450  10676.069462  28369.864433      0.036190                    
P  6  17760.022201  -8590.276576  17762.835495     -5.092182                    
V  6  21626.903396   6712.665492 -18374.670654     -0.002431                    
P  7  25922.247940   6622.586033   -239.206744    385.738889                    
V  7   -150.813242   2164.844722  31783.756038      0.042823                    
P  8  25441.188826   8595.584226  -1321.921938     15.318004                    
V  8   1347.073159   1750.103494  32049.167615      0.001825                    
P  9    367.493594  18913.113269  18823.947221     20.008265                    
V  9 -17188.183666  16321.027368 -16084.372485      0.010895                    
P 10  11351.973380 -12795.722283  19862.030496   -139.890028                    
V 10   8664.175734  24747.019744  11224.019011     -0.014840                    
P 11  13596.025527  13886.537853 -18685.730106   -517.205563                    
V 11 -22643.141390   4163.124778 -13572.760849     -0.029876                    
P 12 -10553.774932 -23554.446922   6645.266592    228.348988                    
V 12   -458.489506  -8625.402848 -30732.814931      0.026191                    
P 13  17337.255859   2835.656615  19852.151054    -36.133217                    
V 13 -18683.953183  17203.211486  13606.485840     -0.039222                    
P 14 -21653.362903  13622.806541  -6607.239058    140.004890                    
V 14   4680.699152  -7811.861114 -30527.771774     -0.036692                    
P 15  -4595.531405 -17016.928885 -19843.618780   -199.790536                    
V 15  17689.081375 -18076.722835  11738.129652     -0.022265                    
P 16   -616.134513  24579.427637   9507.718745   -198.285558                    
V 16  -4786.780894 -11440.050919  29433.149486      0.024601                    
P 17  21256.671340 -13893.169393  -7105.267853   -120.120611                    
V 17  -4902.492109   8469.525998 -30341.493149     -0.027850                    
P 18 -16951.938910  -5392.125876 -19348.348653    341.353272                    
V 18  -6288.558704 -24877.635661  11834.424148      0.025262                    
P 19   -638.423173  18275.158098 -19258.735774   -476.069040                    
V 19 -19167.548500  14926.194850  15363.766408     -0.019637                    
P 20  15079.669728  19534.769801   9723.296969    227.763607                    
V 20   1195.254278  13062.980490 -27491.127276      0.044428                    
P 21 -26212.891878  -2795.941518  -4123.872246   -381.124762                    
V 21  -5103.915871  -4575.236287  30274.247528     -0.021054                    
P 22 -13219.418165   9860.637552 -20578.902780    263.199076                    
V 22  -8877.533574 -25309.175913  -6520.871541      0.034223                    
P 23  11203.625246  10707.121561  21693.678441    -48.339455                    
V 23 -19019.406767  19572.787149   -261.667237     -0.029256                    
P 24 -16398.715780 -14564.816940 -15070.048099    -34.350830                    
V 24  19064.835828   2146.671916 -22749.053323     -0.005728                    
P 25 -15667.598567 -14124.400780  16140.086888     22.696083                    
V 25  -4516.847805 -20107.092897 -21746.109134     -0.008009                    
P 26   8307.356036 -20669.321955 -14900.003853    -36.934226                    
V 26  14652.263322 -10390.486767  23907.812448     -0.132287                    
P 27  -9957.624003  21934.703894 -11128.979987     10.210193                    
V 27 -11394.550691   8683.223295  27411.077767      0.031313                    
P 28  13715.099863  -4331.847925 -21721.144796    380.665736                    
V 28   6666.900638  28214.636166  -1502.077288      0.026666                    
P 29 -17400.548380  -2275.878238  19951.699178    556.956529                    
V 29  17523.819013 -18223.231040  13261.920239      0.024752                    
P 30  24270.312915   -239.667451 -10846.968682    -55.310188                    
V 30  12351.658981   6540.358112  27451.257438     -0.050652                    
P 31 -16487.921666   8892.958445  19101.772016    332.252766                    
V 31 -22721.028231  -7092.352631 -16138.519736     -0.003547                    
P 32   4962.348163  26385.499102   -824.917997   -351.845248                    
V 32  -2928.549550   -484.306491 -31080.042710      0.084742                    
EOF
